GARDEN NAME,Address,Borough,Zip,What-this,Community District,COUNCIL DISTRICT,GROW FOOD,FRUIT TREES
61 Franklin Street Garden,61 Franklin Street,Brooklyn,11222,DPR,B01,33,Yes,No
Berry Street Garden,303 Berry Street,Brooklyn,11249,DPR,B01,34,Yes,Yes
El Puente: Espiritu Tierra Community Garden - Earth Spirit,203-207 South 2nd Street,Brooklyn,11211,DPR,B01,34,Yes,Yes
Grand Street Community Garden,239 Grand Street,Brooklyn,11211,DPR,B01,34,Yes,Yes
Green Dome,229 North 12th Street,Brooklyn,11211,DPR,B01,33,No,Yes
Heckscher Foundation Chil- dren's Garden (Williamsburg Garden),134 Scholes Street,Brooklyn,11206,NYRP,B01,34,No,No
Hooper Grove,375 South 5th Street,Brooklyn,11211,DPR,B01,34,No,Yes
I.S. 318 - Project Roots,110 Walton Street,Brooklyn,11206,DPR,B01,33,Yes,No
Java Street Community Garden,59 Java Street,Brooklyn,11222,DPR,B01,33,Yes,No
Keap Fourth Community Garden,347 Keap Street,Brooklyn,11211,DPR,B01,34,Yes,Yes
La Casita Verde Community Garden,451 Bedford Avenue,Brooklyn,11211,DPR,B01,33,Yes,No
Lentol Garden,178 Bayard Street,Brooklyn,11222,DPR,B01,33,No,Yes
Northside Community Garden,599 Driggs Avenue,Brooklyn,11211,BQLT,B01,33,No,No
Oko Farms Aquaponics Education Garden,104 Moore Street,Brooklyn,11206,DPR,B01,34,Yes,No
Olive Street Garden,25 Olive Street,Brooklyn,11211,DPR,B01,34,Yes,No
Powers Street Garden,276-278 Powers Street,Brooklyn,11211,DPR,B01,34,Yes,No
Red Shed Garden,264-266 Skillman Avenue,Brooklyn,11211,DPR,B01,34,Yes,Yes
Scholes Street Children’s School,134 Scholes Street,Brooklyn,11206,NYRP,B01,34,No,No
Sunshine Community Garden,99-100 Mckibben Street,Brooklyn,11206,DPR,B01,34,Yes,Yes
Ten Eyck Garden,15-17 Ten Eyck Street,Brooklyn,11206,DPR,B01,34,Yes,Yes
Bridge Plaza Community Garden,153 Concord Street,Brooklyn,11201,NYRP,B02,33,No,No
Brooklyn Bears/Carlton Avenue Garden,397-401 Carlton Avenue,Brooklyn,11238,DPR,B02,35,Yes,Yes
Brooklyn Bears/Paci!c Street Garden,590 Paci!c Street,Brooklyn,11217,BANG,B02,39,No,No
Brooklyn Bears/Rockwell Place Garden,65-73 Flatbush Avenue,Brooklyn,11217,DPR,B02,35,Yes,Yes
Brooklyn's Finest Garden,"48 Le""erts Place",Brooklyn,11238,DPR,B02,35,Yes,Yes
Classon / Fulgate Block Association Garden,472 - 474 Classon Avenue,Brooklyn,11238,BQLT,B02,35,No,No
Clifton Place Block Associa- tion Garden,289 Grand Avenue,Brooklyn,11238,BQLT,B02,35,No,No
David Foulke Memorial Garden,248-250 Bergen Street,Brooklyn,11217,BQLT,B02,33,No,No
GARDEN NAME,,,,,,,,
Greene Garden,2 South Portland Avenue,Brooklyn,11217,BQLT,B02,35,No,No
Hollenback Community Garden,460 Washington Avenue,Brooklyn,11238,BQLT,B02,35,No,No
Poplar Street Community Garden,25 Poplar Street,Brooklyn,11201,DOT,B02,33,No,No
Vinegar Hill Community Garden,199 York Street,Brooklyn,11201,DPR,B02,33,Yes,Yes
100 Quincy Community Garden,100 Quincy Street,Brooklyn,11238,DPR,B03,35,Yes,No
462 Halsey Community Farm,462-466 Halsey Street,Brooklyn,11233,DPR,B03,36,Yes,Yes
A Better Community Garden,3 Hunter!y Place,Brooklyn,11233,DPR,B03,36,Yes,Yes
All People's Church Of The Apostolic Faith Community Garden,149 Tompkins Avenue,Brooklyn,11206,DPR,B03,36,Yes,Yes
American Heart Garden,122 Hart Street,Brooklyn,11206,DPR,B03,36,Yes,No
Bedford Stuyvesant Com- munity Garden (Lola Bryant Comm. Garden),95 Malcolm X Bou- levard,Brooklyn,11221,NYRP,B03,36,No,No
Bed-Stuy Farm,404 Decatur Street,Brooklyn,11233,DPR/PRI,B03,36,Yes,No
Cedar Tree Garden,305 Greene Avenue,Brooklyn,11238,DPR,B03,35,Yes,Yes
Central Bainbridge Street Community Garden,"277-279 Bain-
bridge Street",Brooklyn,11233,BQLT,B03,41,No,No
Citizens For A Better Com- munity Garden,742 Monroe Street,Brooklyn,11221,DPR,B03,41,Yes,Yes
Clifton Place Memorial Garden & Park,1031 Bedford Avenue,Brooklyn,11216,DPR,B03,36,Yes,Yes
F.A.R.R. Community Garden,808 Herkimer Street,Brooklyn,11233,DPR,B03,36,Yes,Yes
Feeding Tree Garden,340 Tompkins Avenue,Brooklyn,11216,DPR,B03,36,Yes,Yes
First Quincy Street Commu- nity Garden,397-401 Quincy Street,Brooklyn,11221,DPR,B03,36,Yes,Yes
Garden Of Angels,978 Greene Avenue,Brooklyn,11221,BQLT,B03,36,No,No
Garden Of Hope,392 Hancock Street,Brooklyn,11216,NYRP,B03,36,No,No
Garden Of Life,762 Herkimer Place,Brooklyn,11233,DPR,B03,36,Yes,Yes
Garden Of Plenty,19 Hunter!y Place,Brooklyn,11233,DPR,B03,36,Yes,Yes
Gates Harvest Garden,953 Gates Avenue,Brooklyn,11221,DPR,B03,36,Yes,No
Greene Acres Community Garden,322 Franklin Avenue,Brooklyn,11238,NYRP,B03,35,No,No
Greene Avenue United Neighbors Association Garden,490 Greene Avenue,Brooklyn,11216,DPR,B03,36,Yes,Yes
Halsey Ralph & Howard Community Garden,774 Halsey Street Brooklyn,Brooklyn,11233,DPR,B03,41,Yes,Yes
Hancock Community Back- yard Garden Park,322-324 Hancock Street,Brooklyn,11216,DPR,B03,36,Yes,Yes
Hart To Hart Community Garden,"104-108 Hart
Street",Brooklyn,11206,DPR,B03,36,Yes,No
Hattie Carthan Community Garden,719 Marcy Avenue,Brooklyn,11216,DPR,B03,36,Yes,Yes
Hattie Carthan Herban Farm,49 Van Buren St,Brooklyn,11221,DPR,B03,36,Yes,Yes
GARDEN NAME,,,,,,,,
Heaven's Gate Community Garden (Hart Street),"169-171 Hart
Street",Brooklyn,11206,BQLT,B03,36,No,No
Her-King Alagantic Block Association Garden,411 Herkimer Street,Brooklyn,11213,DPR,B03,36,Yes,Yes
Jane Bailey Memorial Garden,327 Greene Avenue,Brooklyn,11238,NYRP,B03,35,No,No
John The Baptist Communi- ty Garden,10 Stuyvesant Avenue,Brooklyn,11206,BQLT,B03,36,No,No
Kosciusko Street Garden And Learning Center,385 Kosciusko Street,Brooklyn,11221,DPR,B03,36,No,Yes
LDC Of Broadway,900 Broadway,Brooklyn,11206,NYRP,B03,36,No,No
Le!erts Place Block Associa- tion Garden,162 Le!erts Place,Brooklyn,11238,DPR,B03,36,Yes,Yes
Madison Harvest Communi- ty Garden,894 Madison Street,Brooklyn,11221,DPR,B03,41,Yes,No
Madison Hill Community Garden,88-90 Madison Street,Brooklyn,11216,DPR,B03,36,Yes,Yes
Marge Matthews Garden,13 Louis Place,Brooklyn,11233,DPR,B03,41,No,No
Myrtle Village Green (Pratt Area Community Council),636 Myrtle Avenue,Brooklyn,11205,DEP,B03,33,Yes,No
Senior Retreat Garden,911 Myrtle Avenue,Brooklyn,11206,NYCHA,B03,36,No,No
Patchen Avenue Garden,49 Patchen Avenue,Brooklyn,11221,BQLT,B03,41,No,No
Patchen Community Square Garden,142 Patchen Avenue,Brooklyn,11221,DPR,B03,36,Yes,Yes
Patrick Van Doren Pocket Park,123 Malcolm X Boulevard,Brooklyn,11221,DPR,B03,36,Yes,Yes
Red Gate Garden,604 Marcy Avenue,Brooklyn,11206,DPR,B03,36,Yes,Yes
Seasons Of Vision Garden,9-11 Rochester Avenue,Brooklyn,11233,DPR,B03,36,Yes,No
Shiloh Garden,323 Monroe Street,Brooklyn,11216,DPR,B03,36,Yes,Yes
Spencer Street Community Garden,230a Spencer Street,Brooklyn,11205,DPR,B03,33,No,Yes
Stars Of Hope Community Garden,213 Madison Street,Brooklyn,11216,DPR,B03,36,Yes,Yes
Sumpter Street Community Garden,182 Sumpter Street,Brooklyn,11233,DPR,B03,41,Yes,Yes
T&T Vernon Block Associa- tion Garden,200 Vernon Avenue,Brooklyn,11206,DPR,B03,36,Yes,Yes
Target Brooklyn (Bedford Avenue Block Association),931 Bedford Avenue,Brooklyn,11205,NYRP,B03,33,No,No
Tranquility Farm (Willough- by Ave. Garden),267 Throop Avenue,Brooklyn,11206,DPR,B03,36,Yes,Yes
Umoja Garden,1448 Broadway,Brooklyn,11221,DPR,B03,41,Yes,Yes
United Herkimer Garden Club,97 Herkimer Street,Brooklyn,11216,BQLT,B03,36,No,No
Vernon And Throop Com- munity Garden,253 Throop Avenue,Brooklyn,11206,DPR,B03,36,Yes,Yes
Vernon Cases Community Garden,42-48 Vernon Avenue,Brooklyn,11206,DPR,B03,36,Yes,No
Welcome Home Garden,681 Halsey Street,Brooklyn,11233,DPR,B03,41,Yes,Yes
Whole Neighborhood Garden,1001 Bedford Avenue,Brooklyn,11205,DPR,B03,36,Yes,No
Aberdeen Street Communi- ty Garden,98 Aberdeen Street,Brooklyn,11207,NYRP,B04,37,No,No
GARDEN NAME,,,,,,,,
Concerned Citizens Of Grove Street Community Garden,72 Grove Street,Brooklyn,11221,BQLT,B04,34,No,No
Contented Hart Garden,1475 Bushwick Avenue,Brooklyn,11207,BQLT,B04,37,No,No
Cooper Street Block Buster Block Assoc.,41 Cooper Street,Brooklyn,11207,DPR,B04,37,Yes,No
Cooper Street Gardeners,34 Cooper Street,Brooklyn,11207,NYRP,B04,37,No,No
Decatur Street Community Garden,1052 Decatur Street,Brooklyn,11207,NYRP,B04,37,No,No
El Garden,120 Je!erson Street,Brooklyn,11206,DPR,B04,34,Yes,Yes
Good Life Garden,46 Goodwin Place,Brooklyn,11221,DPR,B04,34,Yes,No
Granite Street Block Asso- ciation,28-32 Granite Street,Brooklyn,11207,DPR,B04,37,Yes,Yes
Infant Jesus Community Garden,36 Aberdeen Street,Brooklyn,11207,NYRP,B04,37,No,No
Know Waste Lands,1278 Myrtle Avenue,Brooklyn,11221,DPR,B04,34,Yes,No
La Finca Community Garden,1036 Flushing Avenue,Brooklyn,11237,BQLT,B04,34,No,No
Madison Square Garden,"1262-1264 Madi-
son Street",Brooklyn,11221,DPR,B04,37,Yes,Yes
Madison Street Association,974 Madison Street,Brooklyn,11221,NYRP,B04,34,No,No
Mo!at Street Community Garden,9 Mo!at Street,Brooklyn,11207,DPR,B04,37,Yes,No
People's Garden Bqlt (Youth City Little League),"1237-1241
Broadway",Brooklyn,11221,BQLT,B04,34,No,No
Woodbine Street Block Association Garden,146 Woodbine Street,Brooklyn,11221,BQLT,B04,34,No,No
400 Montauk Avenue Garden,956 New Lots Ave,Brooklyn,11208,DPR,B05,42,Yes,Yes
Artsy Bloom Community Garden,716 Sutter Avenue,Brooklyn,11207,DPR,B05,42,Yes,Yes
Ashford Learning Garden,341 Ashford Street,Brooklyn,11207,DPR,B05,37,Yes,No
Ashford Street Abundant Garden,330 Ashford Street,Brooklyn,11207,DPR,B05,37,Yes,No
BACDYS Garden (Bangla- deshi American Develop- ment and Youth Services),215 Forbell Street,Brooklyn,11208,MTA,B05,37,No,No
Big Red Garden Community Garden (William Byum),436 Van Siclen Avenue,Brooklyn,11207,DPR,B05,42,Yes,No
CAUSA Festival Garden,790 Blake Avenue,Brooklyn,11207,DPR,B05,42,Yes,Yes
Chestnut Street Garden,9 Chestnut Street,Brooklyn,11208,DPR,B05,37,Yes,Yes
Clara's Garden,579 Glenmore Avenue,Brooklyn,11207,DPR,B05,37,Yes,Yes
Cleveland Street Vegetable Garden,433 Cleveland Street,Brooklyn,11208,DPR,B05,37,Yes,No
Concerned Citizens of Barbey Street,606 Glenmore Avenue,Brooklyn,11207,DPR,B05,37,No,No
Crystal Wells Block Associa- tion Community Garden,35 Crystal Street,Brooklyn,11208,DPR,B05,37,Yes,Yes
East End Community Garden,260 Van Siclen Avenue,Brooklyn,11207,DPR,B05,37,Yes,Yes
Elton Street Block Associ- ation,585 Elton Street,Brooklyn,11208,DPR,B05,42,Yes,No
Escape To Nature (Glenmore Hendrix Block Association),555 Glenmore Avenue,Brooklyn,11207,DPR,B05,37,Yes,No
GARDEN NAME,,,,,,,,
Essex Street Community Garden,3030 Fulton Street,Brooklyn,11208,NYRP,B05,37,No,No
Euclid / Pine Street Block Association Garden,1308 Dumont Avenue,Brooklyn,11208,BQLT,B05,42,No,No
Euclid 500 Community Garden,532 Euclid Avenue,Brooklyn,11208,DPR,B05,42,Yes,Yes
Family Community Garden Brooklyn,793 Cleveland Street,Brooklyn,11208,DPR,B05,42,Yes,Yes
First Temple Of David,746 Dumont Avenue,Brooklyn,11207,DPR,B05,42,Yes,Yes
Floral Vineyard,2379 Pitkin Avenue,Brooklyn,11207,DPR,B05,37,Yes,Yes
Georgia Avenue Community Garden,328 New Lots Avenue,Brooklyn,11207,DPR,B05,42,Yes,No
Go Vertical,479 Milford Street,Brooklyn,11208,PRI,B05,42,No,No
Good Shepherds Communi- ty Group,555-557 Shepherd Avenue,Brooklyn,11208,DPR,B05,42,Yes,Yes
Green Gems,147 Fountain Avenue,Brooklyn,11208,DPR,B05,37,Yes,Yes
Gregory's Garden (P.S. 158 Memorial Garden),444 Warwick Street,Brooklyn,11207,DPR,B05,37,Yes,Yes
Hands & Heart (New Lots Urban Farm),290 New Lots Avenue,Brooklyn,11207,DPR,B05,42,Yes,Yes
Hendrix Street Block Associ- ation Garden,532 Hendrix Street,Brooklyn,11207,NYRP,B05,42,No,No
Herbal Garden Of East New York,281 Schenck Avenue,Brooklyn,11207,DPR,B05,37,Yes,Yes
Highland Park Children's Garden,400 Jamaica Avenue,Brooklyn,11208,DPR,B05,37,Yes,Yes
Jerome Gardens,447 Jerome Street,Brooklyn,11207,DPR,B05,42,Yes,Yes
Jerome-Glenmore Corner- stone,316-318 Jerome Street,Brooklyn,11207,DPR,B05,37,No,No
Jerry And The Senior Gents Of E.N.Y.,349 Schenck Avenue,Brooklyn,11207,DPR,B05,37,Yes,Yes
Linwood Street Garden (Pagan's Garden),580 Linwood Street,Brooklyn,11208,DPR,B05,42,Yes,No
Manley's Place,2539 Pitkin Avenue,Brooklyn,11208,DPR,B05,37,Yes,Yes
Montauk Community Gar- den - Concerned Residents Of Montauk Avenue,214 Montauk Avenue,Brooklyn,11208,DPR,B05,37,Yes,No
Monty’s Bradford Street Garden,522 Bradford Street,Brooklyn,11207,DPR,B05,42,No,Yes
Nehemiah Ten Greenthumb Block Association,565 Barbey Street,Brooklyn,11207,DPR,B05,42,Yes,Yes
New Vision Garden,590 Schenck Avenue,Brooklyn,11207,DPR,B05,42,Yes,Yes
Pink’s Paradise Garden of Love,1258 Loring Avenue,Brooklyn,11208,NYCHA,B05,42,No,No
Oriental Garden,326 Jerome Street,Brooklyn,11207,DPR,B05,37,Yes,No
P.S. 4k - Paradise Garden,676-696 Glenmore Avenue,Brooklyn,11207,DPR,B05,37,No,No
Poppa & Momma Jones Historical Garden,337 Van Siclen Avenue,Brooklyn,11207,DPR,B05,37,Yes,Yes
Positive Seeds Of Life Garden,554 Snediker Avenue,Brooklyn,11207,DPR,B05,42,Yes,Yes
Prophecy Garden,43-69 Malta Street,Brooklyn,11207,DPR,B05,42,Yes,No
She!eld Garden,673 She!eld Avenue,Brooklyn,11207,BQLT,B05,42,No,No
GARDEN NAME,,,,,,,,
Shield Of Faith,79-85 Montauk Avenue,Brooklyn,11208,DPR,B05,37,Yes,Yes
St. John Cantius Parish Community Garden,476 New Jersey Ave,Brooklyn,11207,DPR,B05,42,Yes,Yes
Success Garden - East New York,449-461 Williams Avenue,Brooklyn,11207,DPR,B05,42,Yes,No
TLC Sculpture Park Garden,275 Glenmore Avenue,Brooklyn,11207,DPR,B05,37,Yes,Yes
"Triple R (Rest, Re!ection, Relaxation)",641 Hendrix Street,Brooklyn,11207,DPR,B05,42,Yes,No
UCC 2 - Fresh Farm,786 Livonia Ave. Brooklyn,Brooklyn,11207,DPR,B05,42,Yes,No
UCC Youth Farm,620 Schenck Avenue,Brooklyn,11207,DPR,B05,42,Yes,Yes
Upon This Rock Community Garden,2556 Pitkin Avenue,Brooklyn,11208,DPR,B05,37,Yes,Yes
Victory Garden B5,613 Hendrix Street,Brooklyn,11207,DPR,B05,42,Yes,No
Warwick Street Greenery Glow Garden,601 Warwick Street,Brooklyn,11207,DPR,B05,42,Yes,No
Williams Avenue Communi- ty Garden,88 Williams Avenue,Brooklyn,11207,NYRP,B05,37,No,No
Ying & Yang,11329 Seaview Avenue,Brooklyn,11239,DEP,B05,42,No,No
Amazing Garden,261-265 Columbia Street,Brooklyn,11231,DPR,B06,39,Yes,Yes
Backyard Garden,61-73 Hamilton Avenue,Brooklyn,11231,DPR,B06,39,Yes,Yes
Dolly's Park,503 President Street,Brooklyn,11215,DPR,B06,39,No,No
Garden Of Union (Annie's Garden),634 Union Street,Brooklyn,11215,DPR,B06,39,Yes,Yes
Gil Hodges (Carroll Street Garden),534 Carroll Street,Brooklyn,11215,NYRP,B06,39,No,No
Green Space At President Street,222 5th Avenue,Brooklyn,11215,BANG,B06,39,No,No
Greenspace Native Plant Community Garden And Environmental Center,207 4th Avenue,Brooklyn,11217,DEP,B06,39,No,No
Human Compass Communi- ty Garden,207-209 Columbia Street,Brooklyn,11231,DPR,B06,39,No,No
Lincoln-Berkeley Communi- ty Garden,20 Lincoln Place,Brooklyn,11217,BQLT,B06,39,No,No
Pirate's Cove Garden,313 Columbia Street,Brooklyn,11231,DPR,B06,39,Yes,No
South Brooklyn Children's Garden,204 Columbia Street,Brooklyn,11231,DPR,B06,39,No,Yes
Summit Street Community Garden,281 Columbia Street,Brooklyn,11231,DPR,B06,39,Yes,Yes
Urban Meadow,125 Van Brunt Street,Brooklyn,11231,DPR,B06,39,Yes,Yes
Warren-St.Marks Communi- ty Garden,623 Warren Street,Brooklyn,11217,BANG,B06,39,No,No
6/15 Green Community Garden,544 6th Avenue,Brooklyn,11215,BANG,B07,39,No,No
64th Street Community Garden,373 64th Street,Brooklyn,11220,NYSDOT,B07,38,No,No
East 4th Street Communty Garden (Windsor Terrace Kensington Veterans Me- morial),171 E 4th Street,Brooklyn,11218,DPR,B07,39,Yes,Yes
GARDEN NAME,,,,,,,,
Prospect Farm,1194 Prospect Avenue,Brooklyn,11218,PRI,B07,39,No,No
1100 Bergen Street Commu- nity Garden,1107 Bergen Street,Brooklyn,11216,BQLT,B08,36,No,No
Eden’s Community Garden,1123 St Marks Avenue,Brooklyn,11213,DPR,B08,36,Yes,No
Imani Community Garden (Schenectady),87 Schenectady Avenue,Brooklyn,11213,NYRP,B08,36,No,No
Imani Ii Community Garden,1680 Paci!c Street,Brooklyn,11213,DPR,B08,36,Yes,No
Mama Dee's Community Garden,1397 Bedford Avenue,Brooklyn,11216,BQLT,B08,36,No,No
Prospect Heights Commu- nity Farm,252-256 St. Marks Avenue,Brooklyn,11238,BANG,B08,35,No,No
Ralph-Lincoln Service Center Garden,1654 St. John's Place,Brooklyn,11233,BQLT,B08,41,No,No
St. John's Place Renaissance Garden,1642 St. John's Place,Brooklyn,11233,BQLT,B08,41,No,No
St. Mark's Avenue / Prospect Heights Community Garden,207 St. Marks Avenue,Brooklyn,11238,BQLT,B08,35,No,No
Walt L. Shamel Community Garden,1095 Dean Street,Brooklyn,11216,DPR,B08,35,Yes,No
Westbrook Memorial Garden,1233 Paci!c Street,Brooklyn,11216,BQLT,B08,36,No,No
Lincoln Road Garden,316 Lincoln Road,Brooklyn,11225,DPR,B09,40,Yes,No
Maple Street Community Garden,237 Maple Street,Brooklyn,11225,DPR,B09,40,Yes,No
Union Street Garden And Community Development,970 Union Street,Brooklyn,11225,DPR,B09,35,Yes,Yes
Santos White Community Garden,2110 Mermaid Avenue,Brooklyn,11224,DPR,B13,47,Yes,Yes
Surfside Garden Multi-Cul- tural Coalition,2871 Surf Avenue,Brooklyn,11224,DPR,B13,47,Yes,Yes
Q Gardens Community Farm,69 East 18th Street,Brooklyn,11226,MTA/BQLT,B14,40,No,No
The Sunlight Garden,2985 Avenue X,Brooklyn,11229,NYCHA,B15,46,No,No
700 Decatur Street Block Association Garden,700 Decatur Street,Brooklyn,11233,DPR,B16,41,Yes,Yes
A Patch Of Inspiration,631 Powell Street,Brooklyn,11212,DPR,B16,42,No,Yes
Abib Newborn,495 Osborn Street,Brooklyn,11212,DPR,B16,42,Yes,Yes
Amboy Street Garden,208 Amboy Street,Brooklyn,11212,DPR,B16,41,Yes,Yes
Brownsville Community Farm (James Mckeather),239 Herzl Street,Brooklyn,11212,DPR,B16,41,No,Yes
Brownsville Green Commu- nity Garden,1418 Eastern Parkway,Brooklyn,11233,DPR,B16,41,Yes,Yes
Fantasy Garden,181 Legion Street,Brooklyn,11212,DPR,B16,41,Yes,Yes
Farmers Garden,1901 Bergen Street,Brooklyn,11233,DPR,B16,41,Yes,Yes
Fred MacLeod Community Garden,1833 Strauss Street,Brooklyn,11212,DPR,B16,41,No,Yes
Green Valley Garden,93 New Lots Avenue,Brooklyn,11212,DPR,B16,42,Yes,Yes
Howard Garden,750 Howard Avenue,Brooklyn,11212,DPR,B16,41,Yes,Yes
Hull Street Community Garden Inc.,"221-235 Hull
Street",Brooklyn,11233,DPR,B16,37,Yes,Yes
Hull Street Playground,145 Hull Street,Brooklyn,11233,NYRP,B16,41,No,No
Isabahlia Community Garden,615 Saratoga Avenue,Brooklyn,11212,DPR,B16,41,Yes,Yes
GARDEN NAME,,,,,,,,
ISO Student Farm Project,514 Rockaway Avenue,Brooklyn,11212,DPR,B16,41,Yes,No
It’s All About Brownsville,754 Thomas Boyland Street,Brooklyn,11212,DPR,B16,41,Yes,Yes
Jes Good Rewards Children's Garden,155 Amboy Street,Brooklyn,11212,DPR,B16,41,Yes,Yes
McLeod Community Garden,130 Liberty Avenue,Brooklyn,11212,NYRP,B16,37,No,No
MHBA Living Laboratory Community Garden,386 Chester Street,Brooklyn,11212,DPR,B16,42,Yes,No
Newport Garden,191-201 Newport Street,Brooklyn,11212,DPR,B16,42,Yes,Yes
Phoenix Community Garden,16 Somers Street,Brooklyn,11233,DPR,B16,41,Yes,Yes
Powell Street Garden,434 Livonia Avenue,Brooklyn,11212,DPR,B16,42,Yes,Yes
Preston Community Garden,1711 Park Place,Brooklyn,11233,DPR,B16,41,Yes,No
Saratoga Farm,1965-1971 Fulton Street,Brooklyn,11233,DPR,B16,41,Yes,No
Sh'ma Yisrael,2084-90 Paci!c Street,Brooklyn,11233,DPR,B16,41,Yes,No
Sterling Community Group Garden,1701 Sterling Place,Brooklyn,11233,DPR,B16,41,Yes,Yes
Sunkissed Garden,658 Saratoga Avenue & 89 Blake Avenue,Brooklyn,11212,DPR,B16,41,Yes,Yes
Tehuti Ma’at Community Garden,455 Ralph Avenue,Brooklyn,11233,DPR,B16,41,Yes,Yes
Rogers/Tilden/Veronica Place Garden,2601 Tilden Avenue.,Brooklyn,11226,BQLT,B17,40,No,No
Canarsie Neighborhood,9299 Schenck Street,Brooklyn,11236,DPR,B18,46,Yes,Yes
East 43rd Street Community Garden,1087 East 43rd Street,Brooklyn,11210,DPR,B18,45,Yes,Yes
Ponderosa Garden,664 East 105th Street,Brooklyn,11236,DPR,B18,42,Yes,Yes
Serenity Community Garden,4402 Ave. L,Brooklyn,11234,BQLT,B18,45,No,No
Fishbridge Park Garden,338-340 Pearl Street,Manhattan,10038,DPR,M01,1,Yes,No
Jane Street Garden,36-40 Jane Street,Manhattan,10014,DPR,M02,3,No,No
Laguardia Corner Communi- ty Garden,511 Laguardia Place,Manhattan,10012,DOT,M02,1,Yes,Yes
11 BC Serenity Garden,626 East 11th Street,Manhattan,10009,DPR,M03,2,No,No
11th Street Community Garden,422 East 11th Street,Manhattan,10009,MLT,M03,2,No,No
6BC Botanical Garden,"624-628 E 6th
Street",Manhattan,10009,DPR,M03,2,No,No
6th Street & Avenue B Garden,78-92 Avenue B,Manhattan,10009,DPR,M03,2,Yes,Yes
9th Street Community Garden & Park,703 East 9th Street,Manhattan,10009,DPR,M03,2,Yes,Yes
Albert's Garden,16-18 East 2nd Street,Manhattan,10003,MLT,M03,2,No,No
"All People's Garden, Inc.",293-295 East 3rd Street,Manhattan,10009,MLT,M03,2,No,No
Brisas Del Caribe,237 E 3rd Street,Manhattan,10009,DPR,M03,2,Yes,Yes
GARDEN NAME,,,,,,,,
Campos Community Garden,640-644 East 12th Street,Manhattan,10009,DPR,M03,2,Yes,Yes
Carmen Pabon Del Aman- ecer Jardin,117 Avenue C,Manhattan,10009,PRI,M03,2,No,No
Children's Garden,194 Avenue B,Manhattan,10009,DPR,M03,2,Yes,Yes
Children's Magical Garden,131 Stanton Street,Manhattan,10002,DPR,M03,1,No,Yes
Clinton Community Garden (LES),171 Stanton Street,Manhattan,10002,DPR,M03,1,Yes,No
Creative Little Garden,530 East 6th Street,Manhattan,10009,DPR,M03,2,No,No
De Colores Community Yard & Cultural Center,313 E 8th Street,Manhattan,10009,DPR,M03,2,Yes,Yes
Dias Y Flores,520-522 East 13th Street,Manhattan,10009,DPR,M03,2,Yes,No
Dorothy Strelsin Memorial Garden (Su!olk St. - Com- mittee Of Poor People),174 Su!olk Street,Manhattan,10002,NYRP,M03,2,No,No
Down to Earth Garden,546 East 12rh Street,Manhattan,10009,DPR,M03,2,Yes,Yes
Earth People,333-335 East 8th Street,Manhattan,10009,DPR,M03,2,No,Yes
El Jardin Del Paraiso,710 East 5th Street,Manhattan,10009,DPR,M03,2,Yes,Yes
El Sol Brillante Garden,522-528 East 12th Street,Manhattan,10009,PRI,M03,2,No,No
El Sol Brillante Jr.,537 East 12th Street,Manhattan,10009,DPR,M03,2,Yes,No
Fifth Street Slope Garden,626-27 East 5th Street,Manhattan,10009,DPR,M03,2,No,Yes
Fireman's Memorial Garden,360 East 8th Street,Manhattan,10009,DPR,M03,2,No,No
First Street Garden,48 East 1st Street,Manhattan,10003,DPR,M03,2,No,Yes
Flower Door Garden,135 Avenue C,Manhattan,10009,DPR,M03,2,Yes,Yes
Green Oasis Community Garden / Gilbert's Garden,372 East 8th Street,Manhattan,10009,DPR,M03,2,Yes,Yes
Hope Garden,193 East 2nd Street,Manhattan,10009,DPR,M03,2,No,No
Kenkeleba House Garden,212 E. 3rd Street,Manhattan,10009,DPR/FDNY,M03,2,No,No
La Casita Garden,339-41 East 8th Street,Manhattan,10009,DPR,M03,2,Yes,No
La Plaza Cultural-Armando Perez,674 East 9th Street,Manhattan,10009,DPR,M03,2,Yes,Yes
Le Petit Versailles Garden,247 E. 2nd Street,Manhattan,10009,DPR,M03,2,No,No
Liz Christy Garden,110 E Houston Street,Manhattan,10003,DPR,M03,2,No,Yes
Los Amigos,221 East 3rd Street,Manhattan,10009,DPR,M03,2,Yes,Yes
Lower East Side Ecology Center,213 E. 7th Street,Manhattan,10009,DPR,M03,2,No,No
Lower East Side People Care,25 Rutgers Street,Manhattan,10002,MLT,M03,1,No,No
"M'""nda Kalunga Garden",179 Chrystie Street,Manhattan,10002,DPR,M03,1,Yes,No
Miracle Garden,194-196 East 3rd Street,Manhattan,10009,DPR,M03,2,No,No
Orchard Alley,350-54 East 4th Street,Manhattan,10009,DPR,M03,2,No,Yes
Parque De Tranquilidad,314-318 East 4th Street,Manhattan,10009,MLT,M03,2,No,No
Peach Tree Garden,236-238 East 2nd Street,Manhattan,10009,DPR,M03,2,Yes,Yes
GARDEN NAME,,,,,,,,
Sage's Garden,281 East 4th Street,Manhattan,10009,DPR,M03,,Yes,No
Sam & Sadie Koenig Garden,237 E. 7th Street,Manhattan,10009,DPR,M03,,No,No
Secret Garden,293 East 4th Street,Manhattan,10009,DPR,M03,,Yes,Yes
Siempre Verde Garden,"181 Stanton Street
- 137 Attorney Street",Manhattan,10002,DPR,M03,,Yes,Yes
The Humanitarians Garden,"270-272 East
Fourth Street",Manhattan,10009,DPR,M03,,No,Yes
Toyota Childrens Learning Garden (Coradan Evaeden),603 East 11th Street,Manhattan,10009,NYRP,M03,,No,No
Vamos A Sembrar,198 Avenue B,Manhattan,10009,DPR,M03,,No,Yes
Clinton Community Garden,436 West 48th Street,Manhattan,10036,DPR,M04,,Yes,Yes
Oasis Community Garden,505 West 52nd Street,Manhattan,10019,DPR,M04,,Yes,No
La Perla Community Garden,76 W. 105th Street,Manhattan,10025,DPR/MLT,M07,,Yes,Yes
Mobilization For Change Community Garden,955 Columbus Avenue,Manhattan,10025,DPR,M07,,Yes,Yes
West 104th Street Garden,8 West 104th Street,Manhattan,10025,DPR,M07,,Yes,Yes
West 87th Street Park & Garden,55-57 West 87th Street,Manhattan,10024,DPR,M07,,No,No
Columbia Secondary School Community Garden,1195 Amsterdam Ave,Manhattan,10027,DPR,M09,,Yes,No
Edgecomb Avenue Garden Park Sanctuary,339 Edgecomb Avenue,Manhattan,10031,DPR,M09,,No,Yes
Frank White Memorial Garden,506 West 143rd Street,Manhattan,10031,DPR/PRI,M09,,Yes,Yes
Friendship Garden (Lucille Mcclarey Garden),499 West 150th Street,Manhattan,10031,NYRP,M09,,No,No
Harlem Grown P.S. 125 Community Garden,425 West 123rd Street,Manhattan,10027,DPR,M09,,Yes,Yes
Hope Steven Garden,1656 Amsterdam Avenue,Manhattan,10031,MLT,M09,,No,No
Hope: The Friendly Garden On The Hill  (Senior Citizen Sculpture Garden),466 West 152nd Street,Manhattan,10031,DEP,M09,,No,No
Jenny’s Garden,699 West 138th Street,Manhattan,10031,DPR,M09,,Yes,Yes
Maggie's Garden,564 West 149th Street,Manhattan,10031,NYRP,M09,,No,No
Mo' Pals,545 West 147th Street,Manhattan,10031,MLT,M09,,No,No
Serenity Gardens,522 West 146th Street,Manhattan,10031,MLT,M09,,No,No
St. Luke's Community Garden,435 West 141st Street,Manhattan,10031,PRI,M09,,No,No
Sugar Hill Park,333 Edgecombe Avenue,Manhattan,10031,DPR,M09,,Yes,Yes
William A. Harris Garden,869 St Nicholas Ave,Manhattan,10032,DPR,M09,,Yes,Yes
133rd Swing Street Garden,155 West 133rd Street,Manhattan,10030,DPR,M10,,Yes,Yes
Bradhurst Gardens Associa- tion (Garden Of Love),"321 W 152nd
Street",Manhattan,10039,DPR,M10,,Yes,Yes
Carrie McCracken TRUCE- Garden,145 St. Nicholas Avenue,Manhattan,10026,DPR,M10,,No,Yes
Clayton Williams Garden,"303 W 126th
Street",Manhattan,10027,DPR/MLT,M10,,Yes,Yes
GARDEN NAME,,,,,,,,
Edward P. Bowman Park,52 West 129th Street,Manhattan,10027,DPR,M10,9,Yes,No
Electric Ladybug Garden,237 West 111th Street,Manhattan,10026,DPR,M10,9,Yes,Yes
Elizabeth Langley Memorial Garden,"121-123 West
137th Street",Manhattan,10030,DPR,M10,9,Yes,Yes
Five Star Gardens,252 West 121st Street,Manhattan,10027,MLT,M10,9,No,No
Garden Of Love,302 West 116th Street,Manhattan,10026,DPR,M10,9,Yes,No
Harlem Grown 127th Street Learning Annex,128 West 127th Street,Manhattan,10027,DPR,M10,9,No,No
Harlem Grown 131st Street Farm,34 West 131st Street,Manhattan,10037,DPR,M10,9,Yes,No
Harlem Grown 134th Street Farm,116 West 134th Street,Manhattan,10030,DPR,M10,9,Yes,Yes
Harlem Grown 134th Street Green House,126 West 134th Street,Manhattan,10030,DPR,M10,9,Yes,No
Harlem Valley Garden,197 West 134th Street,Manhattan,10030,DPR,M10,9,Yes,Yes
Harlem Village Green,54 W 129th Street,Manhattan,10027,PRI,M10,9,No,No
Joseph Daniel Wilson Me- morial Gardens,"219 W. 122nd
Street",Manhattan,10027,DPR,M10,9,Yes,No
Luigi's Garden Of Love,227 West 115th Street,Manhattan,10026,DPR,M10,9,Yes,No
New 123rd Street Block Association Community Garden,"116 W. 123rd
Street",Manhattan,10027,DPR,M10,9,Yes,Yes
Love Garden,230 West 129th Street,Manhattan,10027,NYCHA,M10,9,No,No
Our Little Green Acre (Gar- den Eight),277 West 122nd Street,Manhattan,10027,DPR,M10,9,Yes,Yes
"Our Neighborhood Place
- Abyssinian Development Corp.",77 West 127th Street,Manhattan,10027,PRI,M10,9,No,No
P.S. 76 - Garden Of Per- serverance,"203 W. 120th
Street",Manhattan,10027,DPR,M10,9,Yes,No
Rev. Linnette C. Williamson Memorial Park,"65-67 W. 128th
Street",Manhattan,10027,PRI,M10,9,No,No
Robert L. Clinkscales Play- ground And Community Garden  (C.G. Of West 146th St.),234 West 146th Street,Manhattan,10039,DPR,M10,9,Yes,Yes
St. Nicholas Miracle Garden,330 St. Nicholas Avenue,Manhattan,10027,DPR,M10,9,Yes,No
Unity Park,55 West 128th Street,Manhattan,10027,DPR,M10,9,Yes,Yes
Walter Miller III Memorial Garden (La Casa Frela),13 West 119th Street,Manhattan,10026,DPR,M10,9,Yes,No
West 124th Street Commu- nity Garden,75 West 124th Street,Manhattan,10027,DPR,M10,9,Yes,Yes
West 132nd Street Garden,"108-114 W. 132nd
Street",Manhattan,10027,DPR,M10,9,Yes,Yes
William B. Washington Memorial Garden,325 West 126th Street,Manhattan,10027,DPR,M10,9,Yes,No
103rd Street Community Garden,105 East 103rd Street,Manhattan,10029,NYRP,M11,8,No,No
117th Street Community Garden,172 East 117th Street,Manhattan,10035,DPR,M11,8,No,No
GARDEN NAME,,,,,,,,
Carolina Garden (Formerly 116th Street Block Assoc.),102 East 122nd Street,Manhattan,10035,DPR,M11,9,Yes,Yes
Carver Community Garden,"236-242 East
124th Street",Manhattan,10035,MLT,M11,8,Yes,Yes
Corozal Family,170 East 117th Street,Manhattan,10035,DPR,M11,8,Yes,No
Diamante Garden / Dimantis Garden,307 East 118th Street,Manhattan,10035,DPR,M11,8,Yes,Yes
East Harlem Community Garden,"429-433 East
117th Street",Manhattan,10035,MLT,M11,8,No,No
El Barrio Community Garden,"415-421 East
117th Street",Manhattan,10035,DPR,M11,8,No,No
El Cataño Garden,171 East 110th Street,Manhattan,10029,NYRP,M11,8,No,No
El Gallo Community Garden,1891-1895 Lexing- ton Avenue,Manhattan,10035,DPR,M11,8,Yes,Yes
Family Community Garden Manhattan,156 East 111th Street,Manhattan,10029,DPR,M11,8,Yes,Yes
Family Garden By Ti!any & Co.,431 East 114th Street,Manhattan,10029,NYRP,M11,8,No,No
Harlem Rose Garden,8 East 129th Street,Manhattan,10035,DPR,M11,9,No,No
Herb Garden (Formerly 111th St. Betterment Assoc.),176 E 111th Street,Manhattan,10029,NYRP,M11,8,No,No
Home Depot Children's Garden,421 East 117th Street,Manhattan,10035,NYRP,M11,8,No,No
Humacao Community Garden,335 E 108th Street,Manhattan,10029,DPR,M11,8,Yes,Yes
Jackie Robinson Community Garden,103 East 122nd Street,Manhattan,10035,DPR/HPD,M11,9,Yes,Yes
La Casita,223 E. 119th Street,Manhattan,10035,NYRP,M11,8,No,No
La Cuevita Community Garden,71 East 115th Street,Manhattan,10029,DPR,M11,8,Yes,Yes
"Life Spire (Crmd, Inc.)",2015 Lexington Avenue,Manhattan,10035,DPR,M11,8,No,No
Los Amigos Garden NYRP,326 Pleasant Avenue,Manhattan,10035,NYRP,M11,8,No,No
Lydia's Magic Garden (El Girasol Magic Garden),1665 Park Avenue,Manhattan,10035,DPR,M11,8,Yes,Yes
Maggie's Magic Garden,1574 Lexington Avenue,Manhattan,10029,DPR,M11,8,Yes,Yes
Neighbors Of Vega Baja,320 E. 109th Street,Manhattan,10029,DPR,M11,8,Yes,Yes
Pa'lante Community Garden (110th Street Block Assoc.),1651 Madison Avenue,Manhattan,10029,DPR,M11,8,Yes,Yes
Papo's Garden,220 E. 119th Street,Manhattan,10035,MLT,M11,8,No,No
Peaceful Valley,52 East 117th Street,Manhattan,10035,DPR,M11,8,No,Yes
Pleasant Village Community Garden,342-353 Pleasant Avenue,Manhattan,10035,DPR/HPD,M11,8,Yes,Yes
Pueblo Unido,1659 Madison Avenue,Manhattan,10029,DPR,M11,8,Yes,Yes
Rodale Pleasant Park Com- munity Garden,437 East 114th St/448-450 East 115th St,Manhattan,10029,DPR/NYRP,M11,8,Yes,Yes
Dorothy K. Mcgowan Me- morial Garden,"513 W 158th
Street",Manhattan,10032,DPR,M12,7,Yes,Yes
Morris Jumel Community Garden,"455-457 W 162nd
Street",Manhattan,10032,DPR,M12,10,Yes,No
RING - Riverside Inwood Neighborhood Garden,236 Dyckman Street,Manhattan,10034,DPR,M12,10,No,No
GARDEN NAME,,,,,,,,
West 181st Street Beauti!ca- tion Project,814 West 181st Street,Manhattan,10033,DOT,M12,10,No,No
Two Coves Community Garden,"11-01 30th
Avenue",Queens,11102,DPR,Q01,22,Yes,Yes
Windmill Community Garden,39-22 29th Street,Queens,11101,DPR,Q01,26,Yes,No
FF Michael Brennan Memo- rial (LIC Roots),"29-08 47th
Avenue",Queens,11101,MTA,Q02,26,No,No
Long Island City Community Garden,5-30 49th Avenue,Queens,11101,DPR,Q02,26,Yes,No
Queens New Roots (East),"41-38 69th St,
Flushing, Ny 11377",Queens,11377,DOT,Q02,26,No,No
Queens New Roots (West),"41-38 69th St,
Flushing, Ny 11377",Queens,11377,DOT,Q02,26,No,No
Smiling Hogshead Ranch,25-30 Skillman Avenue,Queens,11101,MTA,Q02,26,No,No
Sunnyside Park Community Garden,50th St. And Barnett Ave.,Queens,11104,PRI / DOT,Q02,26,No,No
97th Street Block Associ- ation,33-28 97th Street,Queens,11368,DPR,Q03,21,Yes,No
Malcolm X Garden,33-12 112th Street,Queens,11368,BQLT,Q03,21,No,No
McIntosh Neighborhood Association Garden,25-19 100th Street,Queens,11369,BQLT,Q03,21,Yes,No
Corona Taxpayers Associ- ation,"52-02 102nd
Street",Queens,11368,DPR,Q04,21,Yes,Yes
Sparrow's Nest Community Garden,54-01 101st Street,Queens,11368,DPR,Q04,21,Yes,No
Project Eden,67-2 Kessel Street,Queens,11375,DPR,Q06,29,Yes,No
Evergreen Community Garden,47-32 Colden Street,Queens,11355,DPR,Q07,20,Yes,Yes
Pembroke Avenue Commu- nity Garden,253-15 Pembroke Avenue,Queens,11362,NYRP,Q11,19,No,No
Back To Eden Community Garden,144-29 Lakewood Avenue,Queens,11435,BQLT,Q12,28,No,No
CPF Liberty Learning Garden,"106-18 173rd
Street",Queens,11433,DPR,Q12,27,No,No
"Curtis ""50 Cent"" Jackson Community Garden","117-09 165th
Street",Queens,11434,NYRP,Q12,27,No,No
Discovery Community Garden 1,108-59 Union Hall Street,Queens,11433,DPR,Q12,28,Yes,Yes
Discovery Community Garden 2,108-56 Union Hall Street,Queens,11433,DPR,Q12,28,Yes,Yes
Dunton And Civic Associa- tion Community Garden,143-01 Shore Avenue,Queens,11435,BQLT,Q12,28,No,No
George Eagle Carr Commu- nity Garden,89-23 148th Street,Queens,11435,DPR,Q12,24,Yes,Yes
George Washington Carver Botanical Garden,"109-19 156th
Street",Queens,11433,DPR,Q12,28,No,No
Linden Boulevard Commu- nity Garden,178-22 Linden Boulevard,Queens,11434,NYRP,Q12,27,No,No
Merrick-Marsden Neighbor- hood Association Garden,118-18 Merrick Boulevard,Queens,11434,BQLT,Q12,27,No,No
Merrick-Marsden Neighbor- hood Association Garden Ii,117-02 Merrick Boulevard,Queens,11434,BQLT,Q12,27,No,No
Paradise Garden,107-29 Inwood Street,Queens,11435,DPR,Q12,28,Yes,No
Trees Of Life Organic Garden,"106-18 173rd
Street",Queens,11433,DPR,Q12,27,Yes,No
GARDEN NAME,,,,,,,,
Cambria Heights Communi- ty Garden,227th St. Cambria Heights,Queens,11411,BQLT,Q13,27,No,No
Garden Of Resilience,"179-18 145th
Drive",Queens,11434,DPR,Q13,31,No,No
Bay Beach 84 Garden,3-22 Beach 84 Street,Queens,11693,DPR,Q14,31,Yes,No
Beach 91 Community Garden,136 Beach 91st Street,Queens,11693,PRI,Q14,32,No,No
Community Serenity Garden,30-15 Seagirt Boulevard,Queens,11691,DPR,Q14,31,Yes,Yes
Edgemere Coalition Com- munity Garden,480 Beach 43 Street,Queens,11691,DPR,Q14,31,No,No
Edgemere Farm,385 Beach 45th Street,Queens,11691,DPR,Q14,31,Yes,Yes
Far Rock Urban Agro-Educa- tion Center,378 Beach 45th Street,Queens,11691,DPR,Q14,31,Yes,Yes
Rockaway Roots Urban Farm,308 Beach 58th Street,Queens,11692,DPR,Q14,31,Yes,Yes
Rockaway Youth Task Force Urban Farm,310 Beach 58th Street,Queens,11692,DPR,Q14,31,Yes,Yes
Seagirt Boulevard Commu- nity Garden,30-03 Seagirt Boulevard,Queens,11691,NYRP,Q14,31,No,No
"Health For Youth, Skyline Playground Community Garden",40-66 Prospect Avenue,Staten Island,10301,DPR,R01,49,Yes,No
Hill Street Community Garden,50 Hill Street,Staten Island,10304,NYPD,R01,49,Yes,Yes
Joe Holzka Community Garden,1170 Castleton Avenue,Staten Island,10310,DPR,R01,49,Yes,Yes
Moravian Community Garden,1657 Victory Boulevard,Staten Island,10314,PRI,R01,50,No,No
Roots Of Peace Community Garden,390 Targee Street,Staten Island,10304,PRI / DOT,R01,49,No,No
West Brighton Community Garden,899 Henderson Avenue,Staten Island,10310,DPR,R01,49,Yes,No
Westervelt Community & Family Garden,143 Westervelt Avenue,Staten Island,10301,NYRP,R01,49,No,No
138th Street Community Garden,"624-638 East
138th Street",Bronx,10454,DPR,X01,8,Yes,Yes
Bruckner Mott Haven Garden,677 East 136th Street,Bronx,10454,BLT,X01,8,No,No
Cauldwell Youth Garden,551 Cauldwell Avenue,Bronx,10455,BLT,X01,17,No,No
Centro Cultural Rincon Criollo,749 Brook Avenue,Bronx,10451,DPR,X01,17,Yes,Yes
Courtland Avenue Asso- ciation,"364-366 East
158th Street",Bronx,10451,DPR,X01,17,Yes,Yes
Eagle Slope,586 Westchester Avenue,Bronx,10455,DPR,X01,17,Yes,Yes
El Batey Borincano,811-815 Eagle Avenue,Bronx,10456,DPR,X01,17,Yes,Yes
El Flamboyan,586 Tinton Avenue,Bronx,10455,DPR,X01,8,Yes,Yes
Family And Friends Commu- nity Garden,809 Courtlandt Avenue,Bronx,10451,DPR,X01,17,Yes,Yes
Family Group Garden,418 East 158th Street,Bronx,10451,DPR,X01,17,Yes,Yes
Friends Of Brook Park Com- munity Garden,494 East 141st Street,Bronx,10454,DPR,X01,8,Yes,Yes
GARDEN NAME,,,,,,,,
Grove Hill Community Garden,797 Eagle Ave. (E. 158 St.),Bronx,10456,DPR,X01,,Yes,Yes
Isla Verde Garden,625 Wales Avenue,Bronx,10455,DPR,X01,,Yes,Yes
La Finca Del Sur,175 East 138th Street,Bronx,10451,DPR/MTA,X01,,Yes,Yes
Latinos Unidos,427 East 157th Street,Bronx,10451,DPR,X01,,Yes,Yes
Neighborhood Advisory Committee Community Garden,360 E. 151st Street,Bronx,10455,BLT,X01,,No,No
El Jardin de Los Amigos de Moore,515 Jackson Avenue,Bronx,10455,NYCHA,X01,,No,No
NYRP Members Garden (Dalia Group),724 Courtlandt Avenue,Bronx,10455,NYRP,X01,,No,No
Padre Plaza,545 East 139th Street,Bronx,10454,DPR,X01,,Yes,Yes
Palmas Del Caribe (Eagle Av- enue Community Garden),869 Eagle Avenue,Bronx,10456,BLT,X01,,No,No
Rainbow Garden Of Life And Health,762 Melrose Avenue,Bronx,10451,DPR,X01,,Yes,Yes
St. Ann's Block Garden Association,"666-68 St. Ann's
Avenue",Bronx,10455,DPR,X01,,Yes,Yes
United We Stand Garden (Sun!ower / Girasol),627 East 137th Street,Bronx,10454,DPR,X01,,Yes,Yes
Vogue Community Garden,431 E. 156th Street,Bronx,10451,DPR,X01,,No,No
Wanaqua Garden,"460-464 E. 136th
Street",Bronx,10454,DPR,X01,,Yes,Yes
Willis Avenue Community Garden (Bronx Community & Cultural Garden),378 Willis Avenue,Bronx,10454,NYRP,X01,,No,No
Black Joy Farm,972 Simpson Street,Bronx,10459,DPR,X02,,Yes,Yes
Bryant Hill Community Garden,901 Bryant Avenue,Bronx,10474,DPR,X02,,Yes,Yes
Demera Santiago Garden,941 Avenue St. John,Bronx,10455,DPR,X02,,No,No
Mildred T. Rhodebeck Gar- den (Garden Of Eden),927 Faile Street,Bronx,10459,NYRP,X02,,No,No
New Hoe Avenue Garden,958 Hoe Avenue,Bronx,10459,DPR,X02,,Yes,No
Paradise On Earth Garden,"1101-1105 Fox
Street",Bronx,10459,NYRP,X02,,No,No
Schomburg Garden,1009 Rev James A Polite Avenue,Bronx,10459,DPR,X02,,No,No
The William Rainey Garden,685 Beck Street,Bronx,10455,BLT,X02,,No,No
Wishing Well Garden,886 Reverend James A. Polite Avenue,Bronx,10459,DPR,X02,,Yes,No
Bronx Sunshine Garden,1768 Bryant Avenue,Bronx,10460,DPR,X03,,Yes,Yes
El Coqui Community Garden,924 Melrose Avenue,Bronx,10451,DPR,X03,,Yes,Yes
Franklin Memorial Garden,1058 Cauldwell Ave,Bronx,10456,DPR,X03,,Yes,Yes
Freeman Garden,"1225 Hoe Avenue
Bronx, Ny 10459",Bronx,10459,DPR,X03,,Yes,No
Genesis Community Garden,1183 Franklin Avenue,Bronx,10456,DPR,X03,,Yes,Yes
Jackson Forest Garden,722 Home Street,Bronx,10456,DPR,X03,,Yes,Yes
GARDEN NAME,,,,,,,,
Jacqueline Denise Davis Garden,1022-1024 Boston Road,Bronx,10456,BLT,X03,16,No,No
Jardin De La Familia,1507 Washington Avenue,Bronx,10457,DPR,X03,16,Yes,Yes
Jardin De La Roca,422 East 160th St.,Bronx,10451,DPR,X03,17,Yes,Yes
Jennings Street Garden,745 Jennings Stt.,Bronx,10456,DPR,X03,16,No,No
La Isla Usa,836 Elton Avenue,Bronx,10451,DPR,X03,17,Yes,No
Melrose New Generation Community Garden,377 East 160th Street,Bronx,10451,DPR,X03,17,Yes,Yes
Model T Community Garden,1312 Bristow Street,Bronx,10459,DPR,X03,17,Yes,Yes
Morning Glory Community Garden,1221 Hoe Avenue,Bronx,10459,DPR,X03,17,Yes,Yes
Rainbow Block Association,379 East 159th Street,Bronx,10451,DPR,X03,17,Yes,Yes
Synergi Urban Garden,1211 Hoe Avenue,Bronx,10459,DPR,X03,17,Yes,Yes
Victory Garden,580 Crotona Park South,Bronx,10456,DPR,X03,17,Yes,Yes
Bette's Rose Garden,989 Teller Avenue,Bronx,10456,NYRP,X04,16,No,No
Claremont Neighborhood Garden,1280 Teller Avenue,Bronx,10456,DPR,X04,16,Yes,Yes
Clay Avenue Community Garden,"1328-1332 Clay
Avenue",Bronx,10456,NYRP,X04,16,No,No
College Avenue Garden,1420 College Avenue,Bronx,10456,DPR,X04,16,Yes,Yes
Dred Scott Bird Sanctuary Garden,1304 Grant Ave.,Bronx,10456,DPR,X04,16,No,Yes
Garden Of Eden,1686 Weeks Avenue,Bronx,10457,DPR,X04,15,Yes,Yes
Garden Of Life,1685 Weeks Avenue,Bronx,10457,DPR,X04,15,Yes,Yes
Grant Avenue Garden,1062 Grant Avenue,Bronx,10456,BLT,X04,16,No,No
La Isla,"96-98 W. 163rd
Street",Bronx,10452,DPR,X04,8,Yes,Yes
Las Casitas Community Garden,1130 Woodycrest Avenue,Bronx,10452,DPR,X04,16,Yes,Yes
Mosaic Center,1315 Odgen Avenue,Bronx,10452,DPR,X04,16,Yes,No
New Roots Community Farm,670 Grand Con- course,Bronx,10451,DOT,X04,17,No,No
Roberto Clemente Commu- nity Garden,"1272-1280 Shake-
speare Avenue",Bronx,10452,BLT,X04,16,No,No
"Sun, Wind & Shade Oasis",955 Sherman Avenue,Bronx,10456,BLT,X04,16,No,No
Taqwa Community Farm,90 W 164th Street,Bronx,10452,DPR,X04,8,Yes,Yes
Target Bronx (Anderson Av- enue Community Garden),1001 Anderson Avenue,Bronx,10452,NYRP,X04,8,Yes,No
Woodycrest Community Garden,949 Woodycrest Avenue,Bronx,10452,DPR,X04,8,Yes,Yes
Anthony Avenue Garden,2078 Anthony Avenue,Bronx,10457,BLT,X05,15,No,No
Bean Morris Garden,2096 Morris Avenue,Bronx,10453,DPR,X05,14,No,No
Creston Jungle Playground,2242 Creston Avenue,Bronx,10453,NYRP,X05,14,No,No
Eternal Life Community Garden,1810 University Avenue,Bronx,10453,DPR,X05,14,Yes,No
GARDEN NAME,,,,,,,,
Green Patch On Walton,110 East 176th Street,Bronx,10453,DPR,X05,14,Yes,Yes
Jardin De Las Rosas,15 Buchanan Place,Bronx,10453,DPR,X05,14,Yes,Yes
Leave It Better Kids Garden,1974 Grand Avenue,Bronx,10453,DPR,X05,14,Yes,No
Townsend Garden,1735 Walton Avenue,Bronx,10453,DPR,X05,14,Yes,Yes
Bathgate Garden,1836 Bathgate Avenue,Bronx,10457,NYRP,X06,15,No,No
Belmont Little Farmers,2483 Belmont Avenue,Bronx,10458,BLT,X06,15,No,No
Clinton Avenue Community Garden,757 East 179th Street,Bronx,10457,NYRP,X06,15,No,No
Cook Community Farm,2173 Bathgate Avenue,Bronx,10457,DPR,X06,15,Yes,Yes
Drew Garden,1059 East Tremont Avenue,Bronx,10460,NYSDOT,X06,17,No,No
El Batey De Dona Provi,504 East 178th Street,Bronx,10457,DPR,X06,15,Yes,Yes
Farm In The Bronx,2179 Washington Avenue,Bronx,10457,DPR,X06,15,Yes,Yes
Garden Of Happiness,"2156-2160 Pros-
pect Avenue",Bronx,10460,DPR,X06,15,Yes,Yes
Garden Of Youth,2175 Prospect Avenue,Bronx,10457,PRI,X06,15,No,No
Hispanos Unidos,2035 Honeywell Avenue,Bronx,10460,DPR,X06,17,Yes,Yes
Hornaday Community Garden,851 Hornaday Place,Bronx,10460,DPR,X06,15,Yes,Yes
Krystal Community Garden,2093 Vyse Avenue,Bronx,10460,DPR,X06,17,Yes,Yes
Mapes Avenue Garden (HDFC),2124 Mapes Avenue,Bronx,10460,BLT,X06,15,No,No
Miracle Garden - Bronx,851 Fairmont Place,Bronx,10460,DPR,X06,17,Yes,Yes
Perry's Garden (Concerned Tenants Of Daly Avenue),2139 Daly Avenue,Bronx,10460,BLT,X06,15,No,No
River Garden,1086 East 180th Street,Bronx,10460,DPR,X06,15,Yes,Yes
Tremont Community Garden,551 East 178th St.,Bronx,10457,BLT,X06,15,No,No
Bainbridge Avenue Garden,"2974-2980 Bain-
bridge Avenue",Bronx,10458,BLT,X07,11,No,No
Davidson Avenue Commu- nity Garden,2385 Davidson Avenue,Bronx,10468,BLT,X07,14,No,No
Fordham Bedford Lot-Bust- ers,2597 Bainbridge Avenue,Bronx,10458,BLT,X07,15,No,No
New Beginnings Communi- ty Garden,2502 Davidson Avenue,Bronx,10468,DPR,X07,14,No,No
Risse Street Community Garden,10 Risse Street Garden,Bronx,10468,DPR,X07,11,Yes,No
Kingsbridge Heights Com- munity Garden,3101 Kingsbridge Terrace,Bronx,10463,PRI,X08,14,No,No
Harding Park Beauti!cation Project,155 Harding Park,Bronx,10473,DPR,X09,18,Yes,Yes
Havemeyer Garden Asso- ciation,535 Havemeyer Avenue,Bronx,10473,DPR,X09,18,Yes,Yes
Manor Avenue Seniors Garden,1025 Manor Avenue,Bronx,10472,BLT,X09,18,No,No
Randall Community Garden,,,,,,,,
GARDEN NAME,,,,,,,,
Randall Community Garden,1834 Randall Avenue,Bronx,10473,DPR,X09,18,Yes,Yes
Waterfront Community Garden,2008 Gildersleeve xAvenue,Bronx,10473,DPR,X09,18,Yes,Yes
Glover Street Community Garden,1636 Castle Hill Avenue,Bronx,10462,NYRP,X10,18,No,No
Rivers Run Waterfront Com- munity Garden,801 Co-op City Blvd,Bronx,10475,PRI,X10,12,No,No
Pelham Organics,985 Warning Avenue,Bronx,10469,NYCHA,X11,13,No,No
211th Street Community Garden,3537 Carlisle Place,Bronx,10467,NYRP,X12,12,No,No
Bissel Gardens,4510 Furman Avenue,Bronx,10466,MTA,X12,11,No,No
Carpenter Avenue Commu- nity Garden,4501 Carpenter Avenue,Bronx,10470,DOT,X12,11,No,No
Jim Mackey Eastchester Road Community Garden,3658 Eastchester Road,Bronx,10466,NYRP,X12,12,No,No